QIANFAN-41              
1 62242U 24232F   26007.83275813  .00000043  00000+0  47920-4 0  9993
2 62242  89.0002  38.5623 0015844 113.5240 246.7577 13.50982367102771
QIANFAN-42              
1 62243U 24232G   26007.76340450  .00000151  00000+0  58728-4 0  9994
2 62243  88.9995  34.3819 0015057   8.4491 351.6952 14.24504821105074
QIANFAN-43              
1 62244U 24232H   26007.82862046  .00000048  00000+0  55699-4 0  9991
2 62244  89.0007  38.6292 0017297 118.4263 241.8634 13.50981330 71385
QIANFAN-44              
1 62245U 24232J   26007.81628454  .00000054  00000+0  64781-4 0  9993
2 62245  89.0005  38.4408 0015546 115.5062 244.7699 13.50983559102856
QIANFAN-45              
1 62246U 24232K   26007.78341115  .00000062  00000+0  77889-4 0  9998
2 62246  89.0009  38.5915 0016218 115.3932 244.8900 13.50979595102778
QIANFAN-46              
1 62247U 24232L   26007.80805671  .00000059  00000+0  72493-4 0  9996
2 62247  89.0005  38.6570 0016192 120.2574 240.0182 13.50981436102734
QIANFAN-47              
1 62248U 24232M   26007.81221001  .00000056  00000+0  67815-4 0  9996
2 62248  89.0001  38.5885 0016632 119.5523 240.7288 13.50981629102764
QIANFAN-48              
1 62249U 24232N   26007.77513339  .00000049  00000+0  56646-4 0  9992
2 62249  89.0005  38.5951 0018843 122.4148 237.8829 13.50983218102769
